#aV2008 11 22  0  0   .00000000      96 DD+AD WGS84 FIT  NGA
## 1506 518400.00000000   900.00000000 54792  .0000000000000
+   31     2  3  4  5  6  7  8  9 10 11 12 13 14 15 16 17 18
+         19 20 21 22 23 24 25 26 27 28 29 30 31 32  0  0  0
+          0  0  0  0  0  0  0  0  0  0  0  0  0  0  0  0  0
+          0  0  0  0  0  0  0  0  0  0  0  0  0  0  0  0  0
+          0  0  0  0  0  0  0  0  0  0  0  0  0  0  0  0  0
++         0  0  0  0  0  0  0  0  0  0  0  0  0  0  0  0  0
++         0  0  0  0  0  0  0  0  0  0  0  0  0  0  0  0  0
++         0  0  0  0  0  0  0  0  0  0  0  0  0  0  0  0  0
++         0  0  0  0  0  0  0  0  0  0  0  0  0  0  0  0  0
++         0  0  0  0  0  0  0  0  0  0  0  0  0  0  0  0  0
%c cc cc ccc ccc cccc cccc cccc cccc ccccc ccccc ccccc ccccc
%c cc cc ccc ccc cccc cccc cccc cccc ccccc ccccc ccccc ccccc
%f  0.0000000  0.000000000  0.00000000000  0.000000000000000
%f  0.0000000  0.000000000  0.00000000000  0.000000000000000
%i    0    0    0    0      0      0      0      0         0
%i    0    0    0    0      0      0      0      0         0
/*      NGA, ST. LOUIS,MO.                                  
/*   EPHEMERIS COMPUTED FROM  3 DAYS OF DATA                
/* CCCCCCCCCCCCCCCCCCCCCCCCCCCCCCCCCCCCCCCCCCCCCCCCCCCCCCCCC
/* CCCCCCCCCCCCCCCCCCCCCCCCCCCCCCCCCCCCCCCCCCCCCCCCCCCCCCCCC
*  2008 11 22 11 45   .00000000                                                 
P  2 -18250.875459  13712.357240  13120.308446    171.575484                    
V  2 -17310.001151    701.044058 -24944.618691      -.024484                    
P  3  10548.714035 -22952.999377   7303.585096    314.614485                    
V  3   1885.651039  10429.990014  29254.477299       .053049                    
P  4 -26159.565951   5616.703690    600.900322   -240.522350                    
V  4  -1479.510085  -2861.673821 -31077.264870      -.123428                    
P  5  13691.358236  21270.732460  -8595.456292   -397.342456                    
V  5  -9665.763944  -5031.770704 -28720.185445      -.075826                    
P  6  14123.690162 -19685.054715  11055.422392    138.497861                    
V  6   -786.778745  14152.213403  26662.926683      -.077777                    
P  7 -18169.370530  -8573.619886  17406.298609     23.343385                    
V  7  21325.390244  -5973.956747  19188.590127       .001853                    
P  8 -25924.944536   -722.683021   6782.255385   -178.988195                    
V  8   8248.841156  -2745.764908  30453.835915      -.014946                    
P  9   1364.712222  15270.743836 -22324.034374     26.119974                    
V  9 -26079.216948   6093.768389   2764.994609       .018968                    
P 10  -7100.820810  14331.055501  21006.843634     -7.510218                    
V 10 -18127.673802 -20118.839257   7874.429326      -.004084                    
P 11  -4658.674155 -16208.442139 -20682.265186     15.010339                    
V 11  24314.891926  -9798.372149   2577.724713      -.009580                    
P 12   9001.918016  22214.886964 -11477.025482   -338.981505                    
V 12 -11358.835348  -9503.156238 -27037.681840       .025088                    
P 13  -7727.038115 -15665.988441  19893.789697    278.251444                    
V 13  10008.816959 -23388.802918 -14443.385619       .015289                    
P 14  16267.642248  -6205.787035 -19904.452095   -191.376449                    
V 14  -7998.029184  24227.302356 -14116.480076       .048616                    
P 15  -6021.889788  25682.832399  -2917.819878   -214.973851                    
V 15  -3943.495252   2679.009207  31403.752004      -.061459                    
P 16  12144.463353  -9037.570571  21886.542681     93.732945                    
V 16  17930.330816  21018.327200  -1064.212844      -.024053                    
P 17 -16441.380816   3565.056668 -20466.024078     40.881306                    
V 17   7618.336633 -25024.164028 -10632.807824       .005648                    
P 18  19879.016156  16610.888177  -6466.806354   -110.419990                    
V 18   3150.404474   8325.085476  29731.506481       .038391                    
P 19   6834.159649 -25104.977044  -4660.161914     35.419519                    
V 19   5139.098122  -4408.892168  31069.926889      -.001867                    
P 20 -11791.800789 -22160.962899  -8861.046307     98.399283                    
V 20   9728.771484   6124.875764 -28594.561790      -.010454                    
P 21  22335.535421   6198.548803  13716.971471     41.513333                    
V 21 -16195.305784   5298.071356  23749.218886      -.015889                    
P 22  20048.378187   5755.791861 -16314.093318    209.012448                    
V 22  11647.128666  17671.825021  20286.441358      -.002599                    
P 23  -2396.175466 -22401.916021  13798.896986    380.726387                    
V 23   7686.696015 -16076.227466 -24939.401137       .011009                    
P 24   8221.815131  13968.755868  21142.954343    143.072134                    
V 24 -26160.181379   4826.478924   7305.206262       .031078                    
P 25 -11421.467500 -11781.231986  21207.787595     43.774283                    
V 25  24757.253174  -8375.178809   9004.583741       .298157                    
P 26 -10424.016904  24023.921346   1522.994986     18.191899                    
V 26  -1169.959119  -3218.211553  32741.967622       .043654                    
P 27 -21057.044928  -5623.842222  15955.185907      1.943637                    
V 27  17939.960777  -6293.961878  22295.343697       .030578                    
P 28 -20283.394750  -8041.899226 -14973.032688    -23.601558                    
V 28 -11165.396314 -16196.609962  22879.130952      -.001521                    
P 29   7722.110455  17328.564386  18708.016930    -28.746547                    
V 29  -9275.020588  21673.243895 -16300.665963       .018817                    
P 30  18420.354074  19196.542821   -108.954983    109.380203                    
V 30  -2022.770883   2354.792156 -31462.286791       .021467                    
P 31  25155.506543  -7918.406064   3827.176383    -39.992167                    
V 31   4964.840203   1375.498845 -31411.177624      -.022825                    
P 32  -4479.167191 -22025.123444 -13892.973615    313.073568                    
V 32  12542.286394  13436.144800 -24388.015685      -.014654                    
EOF
